STARLINK-11366 [DTC]    
1 61693U 24195G   26081.93407129  .00000463  00000+0  86782-5 0  9996
2 61693  53.1586 320.9787 0001138  97.6861 262.4286 15.69722153 81113
STARLINK-11348 [DTC]    
1 61694U 24195H   26082.37484581  .00003079  00000+0  30246-4 0  9992
2 61694  53.1606 318.7496 0001349  79.8779 280.2391 15.69729509 81187
STARLINK-11327 [DTC]    
1 61695U 24195J   26082.36994623  .00000347  00000+0  77258-5 0  9995
2 61695  53.1602 318.7168 0001519  82.8677 277.2513 15.69730030 81183
STARLINK-11341 [DTC]    
1 61696U 24195K   26081.85571018 -.00004344  00000+0 -31023-4 0  9990
2 61696  53.1591 321.1963 0000949  87.8736 272.2391 15.69706799 81105
STARLINK-11346 [DTC]    
1 61697U 24195L   26082.36014924  .00022123  00000+0  18692-3 0  9995
2 61697  53.1567 318.6518 0001452  93.3718 266.7466 15.69716642 81185
STARLINK-11296 [DTC]    
1 61699U 24195N   26082.35031855 -.00001349  00000+0 -62742-5 0  9994
2 61699  53.1582 318.5858 0001256 111.3033 248.8119 15.69724266 81180
STARLINK-32349          
1 61700U 24195P   26082.42662228  .00001647  00000+0  67740-4 0  9990
2 61700  53.1598  91.6216 0001452  84.3626 275.7540 15.30196128 79285
STARLINK-32461          
1 61701U 24195Q   26082.28650519 -.00000851  00000+0 -16611-4 0  9994
2 61701  53.1595  92.1710 0001325  72.0143 288.1002 15.30184680 79264
STARLINK-32299          
1 61702U 24195R   26082.40341548 -.00001646  00000+0 -43489-4 0  9994
2 61702  53.1600  91.4775 0001098  93.9972 266.1154 15.30182409 79355
STARLINK-32387          
1 61704U 24195T   26082.31698477 -.00000894  00000+0 -18067-4 0  9990
2 61704  53.1593  91.6470 0001034  74.5335 285.5780 15.30194493 79277
STARLINK-32515          
1 61705U 24195U   26082.44665960  .00000995  00000+0  45716-4 0  9997
2 61705  53.1612  91.7459 0001349  79.6811 280.4342 15.30210064 79284
STARLINK-32533          
1 61706U 24195V   26082.31907566  .00002361  00000+0  91784-4 0  9990
2 61706  53.1616  91.6643 0001289  94.2333 265.8815 15.30212339 79276
STARLINK-32376          
1 61707U 24196A   26082.02970435  .00001538  00000+0  64056-4 0  9992
2 61707  53.1614  39.0470 0001093  84.4149 275.6977 15.30191495 79219
STARLINK-32402          
1 61708U 24196B   26082.18881994  .00000013  00000+0  12582-4 0  9995
2 61708  53.1616  38.6223 0001754  51.8309 308.2849 15.30200200 79220
STARLINK-32314          
1 61709U 24196C   26082.17405300  .00000139  00000+0  16822-4 0  9998
2 61709  53.1611  38.5274 0001215  92.7223 267.3916 15.30195097 79229
STARLINK-32404          
1 61710U 24196D   26082.14461458  .00000790  00000+0  38806-4 0  9992
2 61710  53.1613  39.0517 0001532 100.8670 259.2503 15.30198510 79212
