[{"OBJECT_NAME":"STARLINK-11366 [DTC]","OBJECT_ID":"2024-195G","EPOCH":"2026-03-22T22:25:03.759456","MEAN_MOTION":15.69722153,"ECCENTRICITY":0.00011381,"INCLINATION":53.1586,"RA_OF_ASC_NODE":320.9787,"ARG_OF_PERICENTER":97.6861,"MEAN_ANOMALY":262.4286,"EPHEMERIS_TYPE":0,"CLASSIFICATION_TYPE":"U","NORAD_CAT_ID":61693,"ELEMENT_SET_NO":999,"REV_AT_EPOCH":8111,"BSTAR":8.67824e-6,"MEAN_MOTION_DOT":4.63e-6,"MEAN_MOTION_DDOT":0},{"OBJECT_NAME":"STARLINK-11348 [DTC]","OBJECT_ID":"2024-195H","EPOCH":"2026-03-23T08:59:46.677984","MEAN_MOTION":15.69729509,"ECCENTRICITY":0.0001349,"INCLINATION":53.1606,"RA_OF_ASC_NODE":318.7496,"ARG_OF_PERICENTER":79.8779,"MEAN_ANOMALY":280.2391,"EPHEMERIS_TYPE":0,"CLASSIFICATION_TYPE":"U","NORAD_CAT_ID":61694,"ELEMENT_SET_NO":999,"REV_AT_EPOCH":8118,"BSTAR":3.0246e-5,"MEAN_MOTION_DOT":3.079e-5,"MEAN_MOTION_DDOT":0},{"OBJECT_NAME":"STARLINK-11327 [DTC]","OBJECT_ID":"2024-195J","EPOCH":"2026-03-23T08:52:43.354272","MEAN_MOTION":15.6973003,"ECCENTRICITY":0.0001519,"INCLINATION":53.1602,"RA_OF_ASC_NODE":318.7168,"ARG_OF_PERICENTER":82.8677,"MEAN_ANOMALY":277.2513,"EPHEMERIS_TYPE":0,"CLASSIFICATION_TYPE":"U","NORAD_CAT_ID":61695,"ELEMENT_SET_NO":999,"REV_AT_EPOCH":8118,"BSTAR":7.7258e-6,"MEAN_MOTION_DOT":3.47e-6,"MEAN_MOTION_DDOT":0},{"OBJECT_NAME":"STARLINK-11341 [DTC]","OBJECT_ID":"2024-195K","EPOCH":"2026-03-22T20:32:13.359552","MEAN_MOTION":15.69706799,"ECCENTRICITY":9.498e-5,"INCLINATION":53.1591,"RA_OF_ASC_NODE":321.1963,"ARG_OF_PERICENTER":87.8736,"MEAN_ANOMALY":272.2391,"EPHEMERIS_TYPE":0,"CLASSIFICATION_TYPE":"U","NORAD_CAT_ID":61696,"ELEMENT_SET_NO":999,"REV_AT_EPOCH":8110,"BSTAR":-3.1022678e-5,"MEAN_MOTION_DOT":-4.344e-5,"MEAN_MOTION_DDOT":0},{"OBJECT_NAME":"STARLINK-11346 [DTC]","OBJECT_ID":"2024-195L","EPOCH":"2026-03-23T08:38:36.894336","MEAN_MOTION":15.69716642,"ECCENTRICITY":0.0001452,"INCLINATION":53.1567,"RA_OF_ASC_NODE":318.6518,"ARG_OF_PERICENTER":93.3718,"MEAN_ANOMALY":266.7466,"EPHEMERIS_TYPE":0,"CLASSIFICATION_TYPE":"U","NORAD_CAT_ID":61697,"ELEMENT_SET_NO":999,"REV_AT_EPOCH":8118,"BSTAR":0.00018692,"MEAN_MOTION_DOT":0.00022123,"MEAN_MOTION_DDOT":0},{"OBJECT_NAME":"STARLINK-11296 [DTC]","OBJECT_ID":"2024-195N","EPOCH":"2026-03-23T08:24:27.522720","MEAN_MOTION":15.69724266,"ECCENTRICITY":0.0001256,"INCLINATION":53.1582,"RA_OF_ASC_NODE":318.5858,"ARG_OF_PERICENTER":111.3033,"MEAN_ANOMALY":248.8119,"EPHEMERIS_TYPE":0,"CLASSIFICATION_TYPE":"U","NORAD_CAT_ID":61699,"ELEMENT_SET_NO":999,"REV_AT_EPOCH":8118,"BSTAR":-6.2742e-6,"MEAN_MOTION_DOT":-1.349e-5,"MEAN_MOTION_DDOT":0},{"OBJECT_NAME":"STARLINK-32349","OBJECT_ID":"2024-195P","EPOCH":"2026-03-23T10:14:20.164992","MEAN_MOTION":15.30196128,"ECCENTRICITY":0.0001452,"INCLINATION":53.1598,"RA_OF_ASC_NODE":91.6216,"ARG_OF_PERICENTER":84.3626,"MEAN_ANOMALY":275.754,"EPHEMERIS_TYPE":0,"CLASSIFICATION_TYPE":"U","NORAD_CAT_ID":61700,"ELEMENT_SET_NO":999,"REV_AT_EPOCH":7928,"BSTAR":6.774e-5,"MEAN_MOTION_DOT":1.647e-5,"MEAN_MOTION_DDOT":0},{"OBJECT_NAME":"STARLINK-32461","OBJECT_ID":"2024-195Q","EPOCH":"2026-03-23T06:52:34.048416","MEAN_MOTION":15.3018468,"ECCENTRICITY":0.0001325,"INCLINATION":53.1595,"RA_OF_ASC_NODE":92.171,"ARG_OF_PERICENTER":72.0143,"MEAN_ANOMALY":288.1002,"EPHEMERIS_TYPE":0,"CLASSIFICATION_TYPE":"U","NORAD_CAT_ID":61701,"ELEMENT_SET_NO":999,"REV_AT_EPOCH":7926,"BSTAR":-1.6611e-5,"MEAN_MOTION_DOT":-8.51e-6,"MEAN_MOTION_DDOT":0},{"OBJECT_NAME":"STARLINK-32299","OBJECT_ID":"2024-195R","EPOCH":"2026-03-23T09:40:55.097472","MEAN_MOTION":15.30182409,"ECCENTRICITY":0.0001098,"INCLINATION":53.16,"RA_OF_ASC_NODE":91.4775,"ARG_OF_PERICENTER":93.9972,"MEAN_ANOMALY":266.1154,"EPHEMERIS_TYPE":0,"CLASSIFICATION_TYPE":"U","NORAD_CAT_ID":61702,"ELEMENT_SET_NO":999,"REV_AT_EPOCH":7935,"BSTAR":-4.3489e-5,"MEAN_MOTION_DOT":-1.646e-5,"MEAN_MOTION_DDOT":0},{"OBJECT_NAME":"STARLINK-32387","OBJECT_ID":"2024-195T","EPOCH":"2026-03-23T07:36:27.484128","MEAN_MOTION":15.30194493,"ECCENTRICITY":0.0001034,"INCLINATION":53.1593,"RA_OF_ASC_NODE":91.647,"ARG_OF_PERICENTER":74.5335,"MEAN_ANOMALY":285.578,"EPHEMERIS_TYPE":0,"CLASSIFICATION_TYPE":"U","NORAD_CAT_ID":61704,"ELEMENT_SET_NO":999,"REV_AT_EPOCH":7927,"BSTAR":-1.8067e-5,"MEAN_MOTION_DOT":-8.94e-6,"MEAN_MOTION_DDOT":0},{"OBJECT_NAME":"STARLINK-32515","OBJECT_ID":"2024-195U","EPOCH":"2026-03-23T10:43:11.389440","MEAN_MOTION":15.30210064,"ECCENTRICITY":0.0001349,"INCLINATION":53.1612,"RA_OF_ASC_NODE":91.7459,"ARG_OF_PERICENTER":79.6811,"MEAN_ANOMALY":280.4342,"EPHEMERIS_TYPE":0,"CLASSIFICATION_TYPE":"U","NORAD_CAT_ID":61705,"ELEMENT_SET_NO":999,"REV_AT_EPOCH":7928,"BSTAR":4.5716e-5,"MEAN_MOTION_DOT":9.95e-6,"MEAN_MOTION_DDOT":0},{"OBJECT_NAME":"STARLINK-32533","OBJECT_ID":"2024-195V","EPOCH":"2026-03-23T07:39:28.137024","MEAN_MOTION":15.30212339,"ECCENTRICITY":0.0001289,"INCLINATION":53.1616,"RA_OF_ASC_NODE":91.6643,"ARG_OF_PERICENTER":94.2333,"MEAN_ANOMALY":265.8815,"EPHEMERIS_TYPE":0,"CLASSIFICATION_TYPE":"U","NORAD_CAT_ID":61706,"ELEMENT_SET_NO":999,"REV_AT_EPOCH":7927,"BSTAR":9.1784e-5,"MEAN_MOTION_DOT":2.361e-5,"MEAN_MOTION_DDOT":0},{"OBJECT_NAME":"STARLINK-32376","OBJECT_ID":"2024-196A","EPOCH":"2026-03-23T00:42:46.455840","MEAN_MOTION":15.30191495,"ECCENTRICITY":0.00010934,"INCLINATION":53.1614,"RA_OF_ASC_NODE":39.047,"ARG_OF_PERICENTER":84.4149,"MEAN_ANOMALY":275.6977,"EPHEMERIS_TYPE":0,"CLASSIFICATION_TYPE":"U","NORAD_CAT_ID":61707,"ELEMENT_SET_NO":999,"REV_AT_EPOCH":7921,"BSTAR":6.4056441e-5,"MEAN_MOTION_DOT":1.538e-5,"MEAN_MOTION_DDOT":0},{"OBJECT_NAME":"STARLINK-32402","OBJECT_ID":"2024-196B","EPOCH":"2026-03-23T04:31:54.042816","MEAN_MOTION":15.302002,"ECCENTRICITY":0.0001754,"INCLINATION":53.1616,"RA_OF_ASC_NODE":38.6223,"ARG_OF_PERICENTER":51.8309,"MEAN_ANOMALY":308.2849,"EPHEMERIS_TYPE":0,"CLASSIFICATION_TYPE":"U","NORAD_CAT_ID":61708,"ELEMENT_SET_NO":999,"REV_AT_EPOCH":7922,"BSTAR":1.2582e-5,"MEAN_MOTION_DOT":1.3e-7,"MEAN_MOTION_DDOT":0},{"OBJECT_NAME":"STARLINK-32314","OBJECT_ID":"2024-196C","EPOCH":"2026-03-23T04:10:38.179200","MEAN_MOTION":15.30195097,"ECCENTRICITY":0.00012153,"INCLINATION":53.1611,"RA_OF_ASC_NODE":38.5274,"ARG_OF_PERICENTER":92.7223,"MEAN_ANOMALY":267.3916,"EPHEMERIS_TYPE":0,"CLASSIFICATION_TYPE":"U","NORAD_CAT_ID":61709,"ELEMENT_SET_NO":999,"REV_AT_EPOCH":7922,"BSTAR":1.6822208e-5,"MEAN_MOTION_DOT":1.39e-6,"MEAN_MOTION_DDOT":0},{"OBJECT_NAME":"STARLINK-32404","OBJECT_ID":"2024-196D","EPOCH":"2026-03-23T03:28:14.699712","MEAN_MOTION":15.3019851,"ECCENTRICITY":0.00015321,"INCLINATION":53.1613,"RA_OF_ASC_NODE":39.0517,"ARG_OF_PERICENTER":100.867,"MEAN_ANOMALY":259.2503,"EPHEMERIS_TYPE":0,"CLASSIFICATION_TYPE":"U","NORAD_CAT_ID":61710,"ELEMENT_SET_NO":999,"REV_AT_EPOCH":7921,"BSTAR":3.8806087e-5,"MEAN_MOTION_DOT":7.9e-6,"MEAN_MOTION_DDOT":0}]
